{"type": "FeatureCollection", "features": [ {"type": "Feature", "properties": {"norad_id": 28649, "name": "IRS-P5 (CARTOSAT-1)", "group": "resource", "lat": -47.35862498206345, "lon": 16.172813351032026, "alt_km": 603.7313467103995, "timestamp": "2025-12-07T05:38:09.564430+00:00", "meta": {"OBJECT_NAME": "IRS-P5 (CARTOSAT-1)", "OBJECT_ID": "2005-017A", "EPOCH": "2025-12-06T15:20:54.865824", "MEAN_MOTION": 14.90374661, "ECCENTRICITY": 0.0001624, "INCLINATION": 97.5495, "RA_OF_ASC_NODE": 7.3236, "ARG_OF_PERICENTER": 50.8721, "MEAN_ANOMALY": 309.2642, "EPHEMERIS_TYPE": 0, "CLASSIFICATION_TYPE": "U", "NORAD_CAT_ID": 28649, "ELEMENT_SET_NO": 999, "REV_AT_EPOCH": 11513, "BSTAR": 0.00035544159, "MEAN_MOTION_DOT": 3.407e-05, "MEAN_MOTION_DDOT": 0}, "tle": {"line1": "1 28649U 05017A   25340.63952391  .00003407  00000+0  35544-3 0  9991", "line2": "2 28649  97.5495   7.3236 0001624  50.8721 309.2642 14.90374661115135"}}, "geometry": {"type": "Point", "coordinates": [16.172813351032026, -47.35862498206345]}}, {"type": "Feature", "properties": {"norad_id": 28893, "name": "SINAH 1", "group": "resource", "lat": 70.01441785532289, "lon": -46.6797352131031, "alt_km": 666.1647033821619, "timestamp": "2025-12-07T05:38:09.564442+00:00", "meta": {"OBJECT_NAME": "SINAH 1", "OBJECT_ID": "2005-043D", "EPOCH": "2025-12-06T14:22:47.341920", "MEAN_MOTION": 14.63951947, "ECCENTRICITY": 0.00150005, "INCLINATION": 98.2601, "RA_OF_ASC_NODE": 109.1401, "ARG_OF_PERICENTER": 155.3397, "MEAN_ANOMALY": 204.8525, "EPHEMERIS_TYPE": 0, "CLASSIFICATION_TYPE": "U", "NORAD_CAT_ID": 28893, "ELEMENT_SET_NO": 999, "REV_AT_EPOCH": 7234, "BSTAR": 0.00019891485, "MEAN_MOTION_DOT": 9.94e-06, "MEAN_MOTION_DDOT": 0}, "tle": {"line1": "1 28893U 05043D   25340.59915905  .00000994  00000+0  19891-3 0  9991", "line2": "2 28893  98.2601 109.1401 0015000 155.3397 204.8525 14.63951947 72344"}}, "geometry": {"type": "Point", "coordinates": [-46.6797352131031, 70.01441785532289]}}, {"type": "Feature", "properties": {"norad_id": 29079, "name": "EROS B", "group": "resource", "lat": -55.14731827555905, "lon": -93.12485259699257, "alt_km": 375.8183988675137, "timestamp": "2025-12-07T05:38:09.564452+00:00", "meta": {"OBJECT_NAME": "EROS B", "OBJECT_ID": "2006-014A", "EPOCH": "2025-12-06T11:45:46.178784", "MEAN_MOTION": 15.65875028, "ECCENTRICITY": 0.00017523, "INCLINATION": 97.3487, "RA_OF_ASC_NODE": 96.7779, "ARG_OF_PERICENTER": 254.7914, "MEAN_ANOMALY": 105.3153, "EPHEMERIS_TYPE": 0, "CLASSIFICATION_TYPE": "U", "NORAD_CAT_ID": 29079, "ELEMENT_SET_NO": 999, "REV_AT_EPOCH": 8982, "BSTAR": 0.0018805362, "MEAN_MOTION_DOT": 0.00194995, "MEAN_MOTION_DDOT": 0}, "tle": {"line1": "1 29079U 06014A   25340.49011781  .00194995  00000+0  18805-2 0  9993", "line2": "2 29079  97.3487  96.7779 0001752 254.7914 105.3153 15.65875028 89821"}}, "geometry": {"type": "Point", "coordinates": [-93.12485259699257, -55.14731827555905]}}, {"type": "Feature", "properties": {"norad_id": 29228, "name": "RESURS-DK 1", "group": "resource", "lat": 29.576407627950232, "lon": -75.90862156098203, "alt_km": 529.8893571065319, "timestamp": "2025-12-07T05:38:09.564462+00:00", "meta": {"OBJECT_NAME": "RESURS-DK 1", "OBJECT_ID": "2006-021A", "EPOCH": "2025-12-06T09:55:49.837728", "MEAN_MOTION": 15.12107015, "ECCENTRICITY": 0.00077614, "INCLINATION": 69.934, "RA_OF_ASC_NODE": 118.1849, "ARG_OF_PERICENTER": 263.4376, "MEAN_ANOMALY": 96.5906, "EPHEMERIS_TYPE": 0, "CLASSIFICATION_TYPE": "U", "NORAD_CAT_ID": 29228, "ELEMENT_SET_NO": 999, "REV_AT_EPOCH": 7342, "BSTAR": 0.00031037999, "MEAN_MOTION_DOT": 5.256e-05, "MEAN_MOTION_DDOT": 0}, "tle": {"line1": "1 29228U 06021A   25340.41377127  .00005256  00000+0  31038-3 0  9993", "line2": "2 29228  69.9340 118.1849 0007761 263.4376  96.5906 15.12107015 73424"}}, "geometry": {"type": "Point", "coordinates": [-75.90862156098203, 29.576407627950232]}}, {"type": "Feature", "properties": {"norad_id": 29268, "name": "ARIRANG-2 (KOMPSAT-2)", "group": "resource", "lat": 3.43186994492255, "lon": 169.5034588285816, "alt_km": 673.3909274897878, "timestamp": "2025-12-07T05:38:09.564473+00:00", "meta": {"OBJECT_NAME": "ARIRANG-2 (KOMPSAT-2)", "OBJECT_ID": "2006-031A", "EPOCH": "2025-12-06T15:11:22.407936", "MEAN_MOTION": 14.64485588, "ECCENTRICITY": 0.00137998, "INCLINATION": 97.8271, "RA_OF_ASC_NODE": 169.4037, "ARG_OF_PERICENTER": 329.4162, "MEAN_ANOMALY": 102.4938, "EPHEMERIS_TYPE": 0, "CLASSIFICATION_TYPE": "U", "NORAD_CAT_ID": 29268, "ELEMENT_SET_NO": 999, "REV_AT_EPOCH": 3329, "BSTAR": 0.00015405595, "MEAN_MOTION_DOT": 7.72e-06, "MEAN_MOTION_DDOT": 0}, "tle": {"line1": "1 29268U 06031A   25340.63289824  .00000772  00000+0  15406-3 0  9997", "line2": "2 29268  97.8271 169.4037 0013799 329.4162 102.4938 14.64485588 33296"}}, "geometry": {"type": "Point", "coordinates": [169.5034588285816, 3.43186994492255]}}, {"type": "Feature", "properties": {"norad_id": 29709, "name": "LAPAN-TUBSAT", "group": "resource", "lat": -58.102673853112684, "lon": 138.00792495100066, "alt_km": 626.7667589690136, "timestamp": "2025-12-07T05:38:09.564484+00:00", "meta": {"OBJECT_NAME": "LAPAN-TUBSAT", "OBJECT_ID": "2007-001A", "EPOCH": "2025-12-06T14:01:00.061536", "MEAN_MOTION": 14.85656526, "ECCENTRICITY": 0.00136387, "INCLINATION": 98.1251, "RA_OF_ASC_NODE": 330.6141, "ARG_OF_PERICENTER": 92.474, "MEAN_ANOMALY": 267.8036, "EPHEMERIS_TYPE": 0, "CLASSIFICATION_TYPE": "U", "NORAD_CAT_ID": 29709, "ELEMENT_SET_NO": 999, "REV_AT_EPOCH": 2255, "BSTAR": 0.00015309295, "MEAN_MOTION_DOT": 1.271e-05, "MEAN_MOTION_DDOT": 0}, "tle": {"line1": "1 29709U 07001A   25340.58402849  .00001271  00000+0  15309-3 0  9990", "line2": "2 29709  98.1251 330.6141 0013638  92.4740 267.8036 14.85656526 22554"}}, "geometry": {"type": "Point", "coordinates": [138.00792495100066, -58.102673853112684]}}, {"type": "Feature", "properties": {"norad_id": 31113, "name": "HAIYANG-1B", "group": "resource", "lat": 52.410574498410114, "lon": 156.71322065288172, "alt_km": 780.6498539312388, "timestamp": "2025-12-07T05:38:09.564494+00:00", "meta": {"OBJECT_NAME": "HAIYANG-1B", "OBJECT_ID": "2007-010A", "EPOCH": "2025-12-06T13:56:37.559328", "MEAN_MOTION": 14.30961925, "ECCENTRICITY": 0.00145151, "INCLINATION": 98.3308, "RA_OF_ASC_NODE": 325.1137, "ARG_OF_PERICENTER": 55.0701, "MEAN_ANOMALY": 305.1844, "EPHEMERIS_TYPE": 0, "CLASSIFICATION_TYPE": "U", "NORAD_CAT_ID": 31113, "ELEMENT_SET_NO": 999, "REV_AT_EPOCH": 97308, "BSTAR": 0.00011300234, "MEAN_MOTION_DOT": 2.56e-06, "MEAN_MOTION_DDOT": 0}, "tle": {"line1": "1 31113U 07010A   25340.58099027  .00000256  00000+0  11300-3 0  9991", "line2": "2 31113  98.3308 325.1137 0014515  55.0701 305.1844 14.30961925973080"}}, "geometry": {"type": "Point", "coordinates": [156.71322065288172, 52.410574498410114]}}, {"type": "Feature", "properties": {"norad_id": 31598, "name": "COSMO-SKYMED 1", "group": "resource", "lat": -4.253568054014139, "lon": 167.18859607796037, "alt_km": 583.6352872908892, "timestamp": "2025-12-07T05:38:09.564505+00:00", "meta": {"OBJECT_NAME": "COSMO-SKYMED 1", "OBJECT_ID": "2007-023A", "EPOCH": "2025-12-06T13:35:57.217344", "MEAN_MOTION": 14.95696573, "ECCENTRICITY": 0.00011621, "INCLINATION": 97.8835, "RA_OF_ASC_NODE": 165.9259, "ARG_OF_PERICENTER": 78.6726, "MEAN_ANOMALY": 281.4625, "EPHEMERIS_TYPE": 0, "CLASSIFICATION_TYPE": "U", "NORAD_CAT_ID": 31598, "ELEMENT_SET_NO": 999, "REV_AT_EPOCH": 98, "BSTAR": 0.00054226524, "MEAN_MOTION_DOT": 5.978e-05, "MEAN_MOTION_DDOT": 0}, "tle": {"line1": "1 31598U 07023A   25340.56663446  .00005978  00000+0  54227-3 0  9993", "line2": "2 31598  97.8835 165.9259 0001162  78.6726 281.4625 14.95696573   981"}}, "geometry": {"type": "Point", "coordinates": [167.18859607796037, -4.253568054014139]}}, {"type": "Feature", "properties": {"norad_id": 31698, "name": "TERRASAR-X", "group": "resource", "lat": -82.39687026190722, "lon": 88.29852294817498, "alt_km": 516.9853985422178, "timestamp": "2025-12-07T05:38:09.564515+00:00", "meta": {"OBJECT_NAME": "TERRASAR-X", "OBJECT_ID": "2007-026A", "EPOCH": "2025-12-06T14:13:48.566208", "MEAN_MOTION": 15.19149934, "ECCENTRICITY": 0.00017836, "INCLINATION": 97.4444, "RA_OF_ASC_NODE": 346.0634, "ARG_OF_PERICENTER": 82.9925, "MEAN_ANOMALY": 277.1512, "EPHEMERIS_TYPE": 0, "CLASSIFICATION_TYPE": "U", "NORAD_CAT_ID": 31698, "ELEMENT_SET_NO": 999, "REV_AT_EPOCH": 2398, "BSTAR": 0.00013540591, "MEAN_MOTION_DOT": 2.777e-05, "MEAN_MOTION_DDOT": 0}, "tle": {"line1": "1 31698U 07026A   25340.59292322  .00002777  00000+0  13541-3 0  9999", "line2": "2 31698  97.4444 346.0634 0001783  82.9925 277.1512 15.19149934 23984"}}, "geometry": {"type": "Point", "coordinates": [88.29852294817498, -82.39687026190722]}}, {"type": "Feature", "properties": {"norad_id": 32060, "name": "WORLDVIEW-1 (WV-1)", "group": "resource", "lat": 18.096541905028747, "lon": -78.77660715423856, "alt_km": 492.3734439467371, "timestamp": "2025-12-07T05:38:09.564526+00:00", "meta": {"OBJECT_NAME": "WORLDVIEW-1 (WV-1)", "OBJECT_ID": "2007-041A", "EPOCH": "2025-12-06T14:45:07.529472", "MEAN_MOTION": 15.24537198, "ECCENTRICITY": 7.009e-05, "INCLINATION": 97.3846, "RA_OF_ASC_NODE": 98.1831, "ARG_OF_PERICENTER": 100.0358, "MEAN_ANOMALY": 260.0958, "EPHEMERIS_TYPE": 0, "CLASSIFICATION_TYPE": "U", "NORAD_CAT_ID": 32060, "ELEMENT_SET_NO": 999, "REV_AT_EPOCH": 1354, "BSTAR": 0.00058806761, "MEAN_MOTION_DOT": 0.00014417, "MEAN_MOTION_DDOT": 0}, "tle": {"line1": "1 32060U 07041A   25340.61467048  .00014417  00000+0  58807-3 0  9990", "line2": "2 32060  97.3846  98.1831 0000700 100.0358 260.0958 15.24537198 13542"}}, "geometry": {"type": "Point", "coordinates": [-78.77660715423856, 18.096541905028747]}}]}